{
  "type": "FeatureCollection",
  "features": [
    {
      "type": "Feature",
      "properties": {
        "norad_id": 29268,
        "name": "ARIRANG-2 (KOMPSAT-2)",
        "group": "resource",
        "lat": -6.40060448681737,
        "lon": -174.19363301495864,
        "alt_km": 680.7821258550966,
        "timestamp": "2025-12-22T22:44:20.607255+00:00",
        "meta_object_name": "ARIRANG-2 (KOMPSAT-2)",
        "meta_object_id": "2006-031A",
        "meta_epoch": "2025-12-22T14:59:11.227200",
        "meta_mean_motion": 14.64501255,
        "meta_eccentricity": 0.00131512,
        "meta_inclination": 97.8253,
        "meta_ra_of_asc_node": 184.6153,
        "meta_arg_of_pericenter": 275.115,
        "meta_mean_anomaly": 176.3662,
        "meta_ephemeris_type": 0,
        "meta_classification_type": "U",
        "meta_norad_cat_id": 29268,
        "meta_element_set_no": 999,
        "meta_rev_at_epoch": 3563,
        "meta_bstar": 4.1381595e-05,
        "meta_mean_motion_dot": 1.74e-06,
        "meta_mean_motion_ddot": 0,
        "tle_line1": "1 29268U 06031A   25356.62443550  .00000174  00000+0  41382-4 0  9990",
        "tle_line2": "2 29268  97.8253 184.6153 0013151 275.1150 176.3662 14.64501255 35634"
      },
      "geometry": {
        "type": "Point",
        "coordinates": [
          -174.19363301495864,
          -6.40060448681737
        ]
      }
    },
    {
      "type": "Feature",
      "properties": {
        "norad_id": 29709,
        "name": "LAPAN-TUBSAT",
        "group": "resource",
        "lat": -14.519778430302733,
        "lon": -10.565753384891806,
        "alt_km": 611.2354884041024,
        "timestamp": "2025-12-22T22:44:20.607267+00:00",
        "meta_object_name": "LAPAN-TUBSAT",
        "meta_object_id": "2007-001A",
        "meta_epoch": "2025-12-22T14:43:22.224288",
        "meta_mean_motion": 14.85686164,
        "meta_eccentricity": 0.00133689,
        "meta_inclination": 98.1256,
        "meta_ra_of_asc_node": 346.9728,
        "meta_arg_of_pericenter": 45.0106,
        "meta_mean_anomaly": 315.219,
        "meta_ephemeris_type": 0,
        "meta_classification_type": "U",
        "meta_norad_cat_id": 29709,
        "meta_element_set_no": 999,
        "meta_rev_at_epoch": 2493,
        "meta_bstar": 0.00012762707,
        "meta_mean_motion_dot": 1.051e-05,
        "meta_mean_motion_ddot": 0,
        "tle_line1": "1 29709U 07001A   25356.61345167  .00001051  00000+0  12763-3 0  9997",
        "tle_line2": "2 29709  98.1256 346.9728 0013368  45.0106 315.2190 14.85686164 24934"
      },
      "geometry": {
        "type": "Point",
        "coordinates": [
          -10.565753384891806,
          -14.519778430302733
        ]
      }
    },
    {
      "type": "Feature",
      "properties": {
        "norad_id": 31113,
        "name": "HAIYANG-1B",
        "group": "resource",
        "lat": 22.892051155055125,
        "lon": -22.74371343829334,
        "alt_km": 778.5168931486114,
        "timestamp": "2025-12-22T22:44:20.607277+00:00",
        "meta_object_name": "HAIYANG-1B",
        "meta_object_id": "2007-010A",
        "meta_epoch": "2025-12-22T10:53:04.035552",
        "meta_mean_motion": 14.30968169,
        "meta_eccentricity": 0.00137518,
        "meta_inclination": 98.3325,
        "meta_ra_of_asc_node": 340.3307,
        "meta_arg_of_pericenter": 10.2772,
        "meta_mean_anomaly": 349.869,
        "meta_ephemeris_type": 0,
        "meta_classification_type": "U",
        "meta_norad_cat_id": 31113,
        "meta_element_set_no": 999,
        "meta_rev_at_epoch": 97535,
        "meta_bstar": 5.2946745e-05,
        "meta_mean_motion_dot": 9.8e-07,
        "meta_mean_motion_ddot": 0,
        "tle_line1": "1 31113U 07010A   25356.45351893  .00000098  00000+0  52947-4 0  9993",
        "tle_line2": "2 31113  98.3325 340.3307 0013751  10.2772 349.8690 14.30968169975352"
      },
      "geometry": {
        "type": "Point",
        "coordinates": [
          -22.74371343829334,
          22.892051155055125
        ]
      }
    },
    {
      "type": "Feature",
      "properties": {
        "norad_id": 31598,
        "name": "COSMO-SKYMED 1",
        "group": "resource",
        "lat": -46.53538203194208,
        "lon": -169.17910939689756,
        "alt_km": 587.1900219216113,
        "timestamp": "2025-12-22T22:44:20.607288+00:00",
        "meta_object_name": "COSMO-SKYMED 1",
        "meta_object_id": "2007-023A",
        "meta_epoch": "2025-12-22T13:19:00.028416",
        "meta_mean_motion": 14.95837267,
        "meta_eccentricity": 0.00014795,
        "meta_inclination": 97.8839,
        "meta_ra_of_asc_node": 182.0189,
        "meta_arg_of_pericenter": 80.7613,
        "meta_mean_anomaly": 279.3775,
        "meta_ephemeris_type": 0,
        "meta_classification_type": "U",
        "meta_norad_cat_id": 31598,
        "meta_element_set_no": 999,
        "meta_rev_at_epoch": 337,
        "meta_bstar": 0.00029879247,
        "meta_mean_motion_dot": 3.278e-05,
        "meta_mean_motion_ddot": 0,
        "tle_line1": "1 31598U 07023A   25356.55486144  .00003278  00000+0  29879-3 0  9993",
        "tle_line2": "2 31598  97.8839 182.0189 0001479  80.7613 279.3775 14.95837267  3372"
      },
      "geometry": {
        "type": "Point",
        "coordinates": [
          -169.17910939689756,
          -46.53538203194208
        ]
      }
    },
    {
      "type": "Feature",
      "properties": {
        "norad_id": 31698,
        "name": "TERRASAR-X",
        "group": "resource",
        "lat": 73.07685781783844,
        "lon": -152.3664265912233,
        "alt_km": 500.1451893329395,
        "timestamp": "2025-12-22T22:44:20.607299+00:00",
        "meta_object_name": "TERRASAR-X",
        "meta_object_id": "2007-026A",
        "meta_epoch": "2025-12-22T11:12:42.874560",
        "meta_mean_motion": 15.19156937,
        "meta_eccentricity": 0.00019029,
        "meta_inclination": 97.4451,
        "meta_ra_of_asc_node": 1.7062,
        "meta_arg_of_pericenter": 89.1914,
        "meta_mean_anomaly": 270.9539,
        "meta_ephemeris_type": 0,
        "meta_classification_type": "U",
        "meta_norad_cat_id": 31698,
        "meta_element_set_no": 999,
        "meta_rev_at_epoch": 2639,
        "meta_bstar": 3.1918703e-05,
        "meta_mean_motion_dot": 6.03e-06,
        "meta_mean_motion_ddot": 0,
        "tle_line1": "1 31698U 07026A   25356.46716290  .00000603  00000+0  31919-4 0  9993",
        "tle_line2": "2 31698  97.4451   1.7062 0001902  89.1914 270.9539 15.19156937 26391"
      },
      "geometry": {
        "type": "Point",
        "coordinates": [
          -152.3664265912233,
          73.07685781783844
        ]
      }
    },
    {
      "type": "Feature",
      "properties": {
        "norad_id": 32060,
        "name": "WORLDVIEW-1 (WV-1)",
        "group": "resource",
        "lat": -57.39737180993549,
        "lon": 125.97736239492387,
        "alt_km": 500.04682543220224,
        "timestamp": "2025-12-22T22:44:20.607310+00:00",
        "meta_object_name": "WORLDVIEW-1 (WV-1)",
        "meta_object_id": "2007-041A",
        "meta_epoch": "2025-12-22T07:14:04.847136",
        "meta_mean_motion": 15.23906733,
        "meta_eccentricity": 0.00033647,
        "meta_inclination": 97.3828,
        "meta_ra_of_asc_node": 113.6449,
        "meta_arg_of_pericenter": 5.192,
        "meta_mean_anomaly": 354.9352,
        "meta_ephemeris_type": 0,
        "meta_classification_type": "U",
        "meta_norad_cat_id": 32060,
        "meta_element_set_no": 999,
        "meta_rev_at_epoch": 1593,
        "meta_bstar": 0.00033477343,
        "meta_mean_motion_dot": 8.019e-05,
        "meta_mean_motion_ddot": 0,
        "tle_line1": "1 32060U 07041A   25356.30144499  .00008019  00000+0  33477-3 0  9992",
        "tle_line2": "2 32060  97.3828 113.6449 0003364   5.1920 354.9352 15.23906733 15939"
      },
      "geometry": {
        "type": "Point",
        "coordinates": [
          125.97736239492387,
          -57.39737180993549
        ]
      }
    },
    {
      "type": "Feature",
      "properties": {
        "norad_id": 32289,
        "name": "YAOGAN-3",
        "group": "resource",
        "lat": -54.29768469409166,
        "lon": 34.52602820242319,
        "alt_km": 605.8772095468576,
        "timestamp": "2025-12-22T22:44:20.607320+00:00",
        "meta_object_name": "YAOGAN-3",
        "meta_object_id": "2007-055A",
        "meta_epoch": "2025-12-22T19:45:43.617600",
        "meta_mean_motion": 14.89900652,
        "meta_eccentricity": 0.0001158,
        "meta_inclination": 97.8347,
        "meta_ra_of_asc_node": 23.3567,
        "meta_arg_of_pericenter": 83.0216,
        "meta_mean_anomaly": 277.1134,
        "meta_ephemeris_type": 0,
        "meta_classification_type": "U",
        "meta_norad_cat_id": 32289,
        "meta_element_set_no": 999,
        "meta_rev_at_epoch": 97959,
        "meta_bstar": 0.00023215,
        "meta_mean_motion_dot": 2.177e-05,
        "meta_mean_motion_ddot": 0,
        "tle_line1": "1 32289U 07055A   25356.82342150  .00002177  00000+0  23215-3 0  9999",
        "tle_line2": "2 32289  97.8347  23.3567 0001158  83.0216 277.1134 14.89900652979593"
      },
      "geometry": {
        "type": "Point",
        "coordinates": [
          34.52602820242319,
          -54.29768469409166
        ]
      }
    }
  ]
}